{"type":"FeatureCollection","features":[{"type":"Feature","properties":{"cell_id":"TC-0001","habitat":"Forest","species_count":47,"habitat_suitability":1.0,"accessibility":0.3,"road_effect":0.556,"urban_effect":0,"agriculture_effect":0.237,"degradation":0.055,"habitat_quality":0.996,"risk_score":0.004},"geometry":{"type":"Polygon","coordinates":[[[-76.7,42.28],[-76.63250000000001,42.28],[-76.63250000000001,42.3273],[-76.7,42.3273],[-76.7,42.28]]]}},{"type":"Feature","properties":{"cell_id":"TC-0002","habitat":"Agriculture","species_count":38,"habitat_suitability":0.35,"accessibility":1.0,"road_effect":0.531,"urban_effect":0.096,"agriculture_effect":0.247,"degradation":0.088,"habitat_quality":0.346,"risk_score":0.654},"geometry":{"type":"Polygon","coordinates":[[[-76.625,42.28],[-76.5575,42.28],[-76.5575,42.3273],[-76.625,42.3273],[-76.625,42.28]]]}},{"type":"Feature","properties":{"cell_id":"TC-0003","habitat":"Forest","species_count":45,"habitat_suitability":1.0,"accessibility":1.0,"road_effect":0.606,"urban_effect":0.227,"agriculture_effect":0.26,"degradation":0.283,"habitat_quality":0.806,"risk_score":0.194},"geometry":{"type":"Polygon","coordinates":[[[-76.55,42.28],[-76.4825,42.28],[-76.4825,42.3273],[-76.55,42.3273],[-76.55,42.28]]]}},{"type":"Feature","properties":{"cell_id":"TC-0004","habitat":"Agriculture","species_count":39,"habitat_suitability":0.35,"accessibility":0.65,"road_effect":0.476,"urban_effect":0.397,"agriculture_effect":0.315,"degradation":0.093,"habitat_quality":0.345,"risk_score":0.655},"geometry":{"type":"Polygon","coordinates":[[[-76.47500000000001,42.28],[-76.40750000000001,42.28],[-76.40750000000001,42.3273],[-76.47500000000001,42.3273],[-76.47500000000001,42.28]]]}},{"type":"Feature","properties":{"cell_id":"TC-0005","habitat":"Forest","species_count":39,"habitat_suitability":1.0,"accessibility":1.0,"road_effect":0.561,"urban_effect":0.423,"agriculture_effect":0.361,"degradation":0.353,"habitat_quality":0.705,"risk_score":0.295},"geometry":{"type":"Polygon","coordinates":[[[-76.4,42.28],[-76.33250000000001,42.28],[-76.33250000000001,42.3273],[-76.4,42.3273],[-76.4,42.28]]]}},{"type":"Feature","properties":{"cell_id":"TC-0006","habitat":"Agriculture","species_count":45,"habitat_suitability":0.35,"accessibility":0.3,"road_effect":0.607,"urban_effect":0.624,"agriculture_effect":0.269,"degradation":0.061,"habitat_quality":0.348,"risk_score":0.652},"geometry":{"type":"Polygon","coordinates":[[[-76.325,42.28],[-76.25750000000001,42.28],[-76.25750000000001,42.3273],[-76.325,42.3273],[-76.325,42.28]]]}},{"type":"Feature","properties":{"cell_id":"TC-0007","habitat":"Wetland","species_count":41,"habitat_suitability":1.0,"accessibility":1.0,"road_effect":0.463,"urban_effect":0.159,"agriculture_effect":0.294,"degradation":0.265,"habitat_quality":0.831,"risk_score":0.169},"geometry":{"type":"Polygon","coordinates":[[[-76.7,42.335],[-76.63250000000001,42.335],[-76.63250000000001,42.3823],[-76.7,42.3823],[-76.7,42.335]]]}},{"type":"Feature","properties":{"cell_id":"TC-0008","habitat":"Mixed habitat","species_count":50,"habitat_suitability":0.7,"accessibility":1.0,"road_effect":0.453,"urban_effect":0.145,"agriculture_effect":0.155,"degradation":0.165,"habitat_quality":0.659,"risk_score":0.341},"geometry":{"type":"Polygon","coordinates":[[[-76.625,42.335],[-76.5575,42.335],[-76.5575,42.3823],[-76.625,42.3823],[-76.625,42.335]]]}},{"type":"Feature","properties":{"cell_id":"TC-0009","habitat":"Wetland","species_count":52,"habitat_suitability":1.0,"accessibility":0.65,"road_effect":0.413,"urban_effect":0.229,"agriculture_effect":0.273,"degradation":0.177,"habitat_quality":0.93,"risk_score":0.07},"geometry":{"type":"Polygon","coordinates":[[[-76.55,42.335],[-76.4825,42.335],[-76.4825,42.3823],[-76.55,42.3823],[-76.55,42.335]]]}},{"type":"Feature","properties":{"cell_id":"TC-0010","habitat":"Mixed habitat","species_count":51,"habitat_suitability":0.7,"accessibility":1.0,"road_effect":0.459,"urban_effect":0.37,"agriculture_effect":0.203,"degradation":0.234,"habitat_quality":0.609,"risk_score":0.391},"geometry":{"type":"Polygon","coordinates":[[[-76.47500000000001,42.335],[-76.40750000000001,42.335],[-76.40750000000001,42.3823],[-76.47500000000001,42.3823],[-76.47500000000001,42.335]]]}},{"type":"Feature","properties":{"cell_id":"TC-0011","habitat":"Wetland","species_count":42,"habitat_suitability":1.0,"accessibility":0.3,"road_effect":0.512,"urban_effect":0.5,"agriculture_effect":0.214,"degradation":0.121,"habitat_quality":0.972,"risk_score":0.028},"geometry":{"type":"Polygon","coordinates":[[[-76.4,42.335],[-76.33250000000001,42.335],[-76.33250000000001,42.3823],[-76.4,42.3823],[-76.4,42.335]]]}},{"type":"Feature","properties":{"cell_id":"TC-0012","habitat":"Mixed habitat","species_count":46,"habitat_suitability":0.7,"accessibility":0.65,"road_effect":0.441,"urban_effect":0.644,"agriculture_effect":0.199,"degradation":0.199,"habitat_quality":0.636,"risk_score":0.364},"geometry":{"type":"Polygon","coordinates":[[[-76.325,42.335],[-76.25750000000001,42.335],[-76.25750000000001,42.3823],[-76.325,42.3823],[-76.325,42.335]]]}},{"type":"Feature","properties":{"cell_id":"TC-0013","habitat":"Agriculture","species_count":44,"habitat_suitability":0.35,"accessibility":1.0,"road_effect":0.436,"urban_effect":0.156,"agriculture_effect":0.215,"degradation":0.088,"habitat_quality":0.346,"risk_score":0.654},"geometry":{"type":"Polygon","coordinates":[[[-76.7,42.39],[-76.63250000000001,42.39],[-76.63250000000001,42.4373],[-76.7,42.4373],[-76.7,42.39]]]}},{"type":"Feature","properties":{"cell_id":"TC-0014","habitat":"Forest","species_count":44,"habitat_suitability":1.0,"accessibility":0.65,"road_effect":0.384,"urban_effect":0.201,"agriculture_effect":0.157,"degradation":0.129,"habitat_quality":0.967,"risk_score":0.033},"geometry":{"type":"Polygon","coordinates":[[[-76.625,42.39],[-76.5575,42.39],[-76.5575,42.4373],[-76.625,42.4373],[-76.625,42.39]]]}},{"type":"Feature","properties":{"cell_id":"TC-0015","habitat":"Agriculture","species_count":35,"habitat_suitability":0.35,"accessibility":1.0,"road_effect":0.454,"urban_effect":0.336,"agriculture_effect":0.096,"degradation":0.124,"habitat_quality":0.34,"risk_score":0.66},"geometry":{"type":"Polygon","coordinates":[[[-76.55,42.39],[-76.4825,42.39],[-76.4825,42.4373],[-76.55,42.4373],[-76.55,42.39]]]}},{"type":"Feature","properties":{"cell_id":"TC-0016","habitat":"Forest","species_count":46,"habitat_suitability":1.0,"accessibility":0.3,"road_effect":0.394,"urban_effect":0.447,"agriculture_effect":0.173,"degradation":0.088,"habitat_quality":0.987,"risk_score":0.013},"geometry":{"type":"Polygon","coordinates":[[[-76.47500000000001,42.39],[-76.40750000000001,42.39],[-76.40750000000001,42.4373],[-76.47500000000001,42.4373],[-76.47500000000001,42.39]]]}},{"type":"Feature","properties":{"cell_id":"TC-0017","habitat":"Agriculture","species_count":40,"habitat_suitability":0.35,"accessibility":0.65,"road_effect":0.39,"urban_effect":0.516,"agriculture_effect":0.162,"degradation":0.1,"habitat_quality":0.344,"risk_score":0.656},"geometry":{"type":"Polygon","coordinates":[[[-76.4,42.39],[-76.33250000000001,42.39],[-76.33250000000001,42.4373],[-76.4,42.4373],[-76.4,42.39]]]}},{"type":"Feature","properties":{"cell_id":"TC-0018","habitat":"Forest","species_count":43,"habitat_suitability":1.0,"accessibility":1.0,"road_effect":0.431,"urban_effect":0.707,"agriculture_effect":0.191,"degradation":0.398,"habitat_quality":0.639,"risk_score":0.361},"geometry":{"type":"Polygon","coordinates":[[[-76.325,42.39],[-76.25750000000001,42.39],[-76.25750000000001,42.4373],[-76.325,42.4373],[-76.325,42.39]]]}},{"type":"Feature","properties":{"cell_id":"TC-0019","habitat":"Mixed habitat","species_count":23,"habitat_suitability":0.7,"accessibility":0.65,"road_effect":0.399,"urban_effect":0,"agriculture_effect":0.094,"degradation":0.068,"habitat_quality":0.695,"risk_score":0.305},"geometry":{"type":"Polygon","coordinates":[[[-76.7,42.445],[-76.63250000000001,42.445],[-76.63250000000001,42.4923],[-76.7,42.4923],[-76.7,42.445]]]}},{"type":"Feature","properties":{"cell_id":"TC-0020","habitat":"Wetland","species_count":31,"habitat_suitability":1.0,"accessibility":1.0,"road_effect":0.347,"urban_effect":0.136,"agriculture_effect":0.198,"degradation":0.201,"habitat_quality":0.907,"risk_score":0.093},"geometry":{"type":"Polygon","coordinates":[[[-76.625,42.445],[-76.5575,42.445],[-76.5575,42.4923],[-76.625,42.4923],[-76.625,42.445]]]}},{"type":"Feature","properties":{"cell_id":"TC-0021","habitat":"Mixed habitat","species_count":28,"habitat_suitability":0.7,"accessibility":0.3,"road_effect":0.209,"urban_effect":0.36,"agriculture_effect":0.075,"degradation":0.048,"habitat_quality":0.698,"risk_score":0.302},"geometry":{"type":"Polygon","coordinates":[[[-76.55,42.445],[-76.4825,42.445],[-76.4825,42.4923],[-76.55,42.4923],[-76.55,42.445]]]}},{"type":"Feature","properties":{"cell_id":"TC-0022","habitat":"Wetland","species_count":26,"habitat_suitability":1.0,"accessibility":0.65,"road_effect":0.266,"urban_effect":0.471,"agriculture_effect":0.173,"degradation":0.198,"habitat_quality":0.91,"risk_score":0.09},"geometry":{"type":"Polygon","coordinates":[[[-76.47500000000001,42.445],[-76.40750000000001,42.445],[-76.40750000000001,42.4923],[-76.47500000000001,42.4923],[-76.47500000000001,42.445]]]}},{"type":"Feature","properties":{"cell_id":"TC-0023","habitat":"Mixed habitat","species_count":28,"habitat_suitability":0.7,"accessibility":1.0,"road_effect":0.232,"urban_effect":0.547,"agriculture_effect":0.219,"degradation":0.231,"habitat_quality":0.612,"risk_score":0.388},"geometry":{"type":"Polygon","coordinates":[[[-76.4,42.445],[-76.33250000000001,42.445],[-76.33250000000001,42.4923],[-76.4,42.4923],[-76.4,42.445]]]}},{"type":"Feature","properties":{"cell_id":"TC-0024","habitat":"Wetland","species_count":31,"habitat_suitability":1.0,"accessibility":1.0,"road_effect":0.293,"urban_effect":0.722,"agriculture_effect":0.167,"degradation":0.413,"habitat_quality":0.618,"risk_score":0.382},"geometry":{"type":"Polygon","coordinates":[[[-76.325,42.445],[-76.25750000000001,42.445],[-76.25750000000001,42.4923],[-76.325,42.4923],[-76.325,42.445]]]}},{"type":"Feature","properties":{"cell_id":"TC-0025","habitat":"Forest","species_count":19,"habitat_suitability":1.0,"accessibility":1.0,"road_effect":0.206,"urban_effect":0.161,"agriculture_effect":0.292,"degradation":0.151,"habitat_quality":0.952,"risk_score":0.048},"geometry":{"type":"Polygon","coordinates":[[[-76.7,42.5],[-76.63250000000001,42.5],[-76.63250000000001,42.5473],[-76.7,42.5473],[-76.7,42.5]]]}},{"type":"Feature","properties":{"cell_id":"TC-0026","habitat":"Agriculture","species_count":15,"habitat_suitability":0.35,"accessibility":0.3,"road_effect":0.265,"urban_effect":0.111,"agriculture_effect":0.245,"degradation":0.018,"habitat_quality":0.35,"risk_score":0.65},"geometry":{"type":"Polygon","coordinates":[[[-76.625,42.5],[-76.5575,42.5],[-76.5575,42.5473],[-76.625,42.5473],[-76.625,42.5]]]}},{"type":"Feature","properties":{"cell_id":"TC-0027","habitat":"Forest","species_count":12,"habitat_suitability":1.0,"accessibility":0.65,"road_effect":0.25,"urban_effect":0.203,"agriculture_effect":0.28,"degradation":0.115,"habitat_quality":0.975,"risk_score":0.025},"geometry":{"type":"Polygon","coordinates":[[[-76.55,42.5],[-76.4825,42.5],[-76.4825,42.5473],[-76.55,42.5473],[-76.55,42.5]]]}},{"type":"Feature","properties":{"cell_id":"TC-0028","habitat":"Agriculture","species_count":15,"habitat_suitability":0.35,"accessibility":1.0,"road_effect":0.291,"urban_effect":0.44,"agriculture_effect":0.266,"degradation":0.128,"habitat_quality":0.339,"risk_score":0.661},"geometry":{"type":"Polygon","coordinates":[[[-76.47500000000001,42.5],[-76.40750000000001,42.5],[-76.40750000000001,42.5473],[-76.47500000000001,42.5473],[-76.47500000000001,42.5]]]}},{"type":"Feature","properties":{"cell_id":"TC-0029","habitat":"Forest","species_count":16,"habitat_suitability":1.0,"accessibility":1.0,"road_effect":0.133,"urban_effect":0.458,"agriculture_effect":0.259,"degradation":0.233,"habitat_quality":0.871,"risk_score":0.129},"geometry":{"type":"Polygon","coordinates":[[[-76.4,42.5],[-76.33250000000001,42.5],[-76.33250000000001,42.5473],[-76.4,42.5473],[-76.4,42.5]]]}},{"type":"Feature","properties":{"cell_id":"TC-0030","habitat":"Agriculture","species_count":18,"habitat_suitability":0.35,"accessibility":0.65,"road_effect":0.281,"urban_effect":0.692,"agriculture_effect":0.223,"degradation":0.115,"habitat_quality":0.341,"risk_score":0.659},"geometry":{"type":"Polygon","coordinates":[[[-76.325,42.5],[-76.25750000000001,42.5],[-76.25750000000001,42.5473],[-76.325,42.5473],[-76.325,42.5]]]}},{"type":"Feature","properties":{"cell_id":"TC-0031","habitat":"Wetland","species_count":9,"habitat_suitability":1.0,"accessibility":0.3,"road_effect":0.142,"urban_effect":0,"agriculture_effect":0.319,"degradation":0.031,"habitat_quality":0.999,"risk_score":0.001},"geometry":{"type":"Polygon","coordinates":[[[-76.7,42.555],[-76.63250000000001,42.555],[-76.63250000000001,42.6023],[-76.7,42.6023],[-76.7,42.555]]]}},{"type":"Feature","properties":{"cell_id":"TC-0032","habitat":"Mixed habitat","species_count":8,"habitat_suitability":0.7,"accessibility":0.65,"road_effect":0.138,"urban_effect":0.154,"agriculture_effect":0.317,"degradation":0.07,"habitat_quality":0.695,"risk_score":0.305},"geometry":{"type":"Polygon","coordinates":[[[-76.625,42.555],[-76.5575,42.555],[-76.5575,42.6023],[-76.625,42.6023],[-76.625,42.555]]]}},{"type":"Feature","properties":{"cell_id":"TC-0033","habitat":"Wetland","species_count":8,"habitat_suitability":1.0,"accessibility":1.0,"road_effect":0.205,"urban_effect":0.227,"agriculture_effect":0.379,"degradation":0.225,"habitat_quality":0.881,"risk_score":0.119},"geometry":{"type":"Polygon","coordinates":[[[-76.55,42.555],[-76.4825,42.555],[-76.4825,42.6023],[-76.55,42.6023],[-76.55,42.555]]]}},{"type":"Feature","properties":{"cell_id":"TC-0034","habitat":"Mixed habitat","species_count":8,"habitat_suitability":0.7,"accessibility":1.0,"road_effect":0.165,"urban_effect":0.457,"agriculture_effect":0.237,"degradation":0.191,"habitat_quality":0.642,"risk_score":0.358},"geometry":{"type":"Polygon","coordinates":[[[-76.47500000000001,42.555],[-76.40750000000001,42.555],[-76.40750000000001,42.6023],[-76.47500000000001,42.6023],[-76.47500000000001,42.555]]]}},{"type":"Feature","properties":{"cell_id":"TC-0035","habitat":"Wetland","species_count":8,"habitat_suitability":1.0,"accessibility":0.65,"road_effect":0.131,"urban_effect":0.585,"agriculture_effect":0.354,"degradation":0.221,"habitat_quality":0.885,"risk_score":0.115},"geometry":{"type":"Polygon","coordinates":[[[-76.4,42.555],[-76.33250000000001,42.555],[-76.33250000000001,42.6023],[-76.4,42.6023],[-76.4,42.555]]]}},{"type":"Feature","properties":{"cell_id":"TC-0036","habitat":"Mixed habitat","species_count":8,"habitat_suitability":0.7,"accessibility":0.3,"road_effect":0.196,"urban_effect":0.568,"agriculture_effect":0.234,"degradation":0.069,"habitat_quality":0.695,"risk_score":0.305},"geometry":{"type":"Polygon","coordinates":[[[-76.325,42.555],[-76.25750000000001,42.555],[-76.25750000000001,42.6023],[-76.325,42.6023],[-76.325,42.555]]]}}]}